NOAA 15                 
1 25338U 98030A   24268.54634286  .00000428  00000+0  19440-3 0  9995
2 25338  98.5636 293.5807 0010929  39.9316 320.2667 14.26717825371602
